{
  "type": "FeatureCollection",
  "features": [
    {
      "type": "Feature",
      "properties": {
        "norad_id": 67010,
        "name": "STARLINK-36189",
        "group": "last-30-days",
        "lat": 68.06568658331453,
        "lon": 56.5065003307055,
        "alt_km": 292.44166228248287,
        "timestamp": "2025-12-20T11:30:27.108266+00:00",
        "meta_object_name": "STARLINK-36189",
        "meta_object_id": "2025-293H",
        "meta_epoch": "2025-12-20T04:00:00.999072",
        "meta_mean_motion": 15.92537971,
        "meta_eccentricity": 0.0003949,
        "meta_inclination": 69.9943,
        "meta_ra_of_asc_node": 302.2101,
        "meta_arg_of_pericenter": 271.5445,
        "meta_mean_anomaly": 195.2121,
        "meta_ephemeris_type": 0,
        "meta_classification_type": "U",
        "meta_norad_cat_id": 67010,
        "meta_element_set_no": 999,
        "meta_rev_at_epoch": 137,
        "meta_bstar": -0.0033447,
        "meta_mean_motion_dot": -0.01140428,
        "meta_mean_motion_ddot": 0.00038732,
        "tle_line1": "1 67010U 25293H   25354.16667823 -.01140428  38732-3 -33447-2 0  9994",
        "tle_line2": "2 67010  69.9943 302.2101 0003949 271.5445 195.2121 15.92537971  1379"
      },
      "geometry": {
        "type": "Point",
        "coordinates": [
          56.5065003307055,
          68.06568658331453
        ]
      }
    },
    {
      "type": "Feature",
      "properties": {
        "norad_id": 67011,
        "name": "STARLINK-36167",
        "group": "last-30-days",
        "lat": 68.9919818268518,
        "lon": 49.71869993109807,
        "alt_km": 292.50012424043325,
        "timestamp": "2025-12-20T11:30:27.108278+00:00",
        "meta_object_name": "STARLINK-36167",
        "meta_object_id": "2025-293J",
        "meta_epoch": "2025-12-20T04:00:00.999072",
        "meta_mean_motion": 15.92483585,
        "meta_eccentricity": 0.0003908,
        "meta_inclination": 69.9939,
        "meta_ra_of_asc_node": 302.2126,
        "meta_arg_of_pericenter": 271.3891,
        "meta_mean_anomaly": 192.7812,
        "meta_ephemeris_type": 0,
        "meta_classification_type": "U",
        "meta_norad_cat_id": 67011,
        "meta_element_set_no": 999,
        "meta_rev_at_epoch": 131,
        "meta_bstar": -0.0033567,
        "meta_mean_motion_dot": -0.01141269,
        "meta_mean_motion_ddot": 0.00038763,
        "tle_line1": "1 67011U 25293J   25354.16667823 -.01141269  38763-3 -33567-2 0  9996",
        "tle_line2": "2 67011  69.9939 302.2126 0003908 271.3891 192.7812 15.92483585  1314"
      },
      "geometry": {
        "type": "Point",
        "coordinates": [
          49.71869993109807,
          68.9919818268518
        ]
      }
    },
    {
      "type": "Feature",
      "properties": {
        "norad_id": 67012,
        "name": "STARLINK-36175",
        "group": "last-30-days",
        "lat": 67.12756498636838,
        "lon": 61.56286037606596,
        "alt_km": 292.4160923227064,
        "timestamp": "2025-12-20T11:30:27.108288+00:00",
        "meta_object_name": "STARLINK-36175",
        "meta_object_id": "2025-293K",
        "meta_epoch": "2025-12-20T04:00:00.999072",
        "meta_mean_motion": 15.92585997,
        "meta_eccentricity": 0.0003977,
        "meta_inclination": 69.9941,
        "meta_ra_of_asc_node": 302.2075,
        "meta_arg_of_pericenter": 273.3439,
        "meta_mean_anomaly": 195.4997,
        "meta_ephemeris_type": 0,
        "meta_classification_type": "U",
        "meta_norad_cat_id": 67012,
        "meta_element_set_no": 999,
        "meta_rev_at_epoch": 131,
        "meta_bstar": -0.0033485,
        "meta_mean_motion_dot": -0.01144555,
        "meta_mean_motion_ddot": 0.0003901,
        "tle_line1": "1 67012U 25293K   25354.16667823 -.01144555  39010-3 -33485-2 0  9993",
        "tle_line2": "2 67012  69.9941 302.2075 0003977 273.3439 195.4997 15.92585997  1311"
      },
      "geometry": {
        "type": "Point",
        "coordinates": [
          61.56286037606596,
          67.12756498636838
        ]
      }
    },
    {
      "type": "Feature",
      "properties": {
        "norad_id": 67013,
        "name": "STARLINK-35856",
        "group": "last-30-days",
        "lat": 65.78411810330691,
        "lon": 67.1854511929015,
        "alt_km": 292.35707411762723,
        "timestamp": "2025-12-20T11:30:27.108298+00:00",
        "meta_object_name": "STARLINK-35856",
        "meta_object_id": "2025-293L",
        "meta_epoch": "2025-12-20T04:00:00.999072",
        "meta_mean_motion": 15.9264959,
        "meta_eccentricity": 0.0003941,
        "meta_inclination": 69.9938,
        "meta_ra_of_asc_node": 302.2041,
        "meta_arg_of_pericenter": 273.1177,
        "meta_mean_anomaly": 198.2765,
        "meta_ephemeris_type": 0,
        "meta_classification_type": "U",
        "meta_norad_cat_id": 67013,
        "meta_element_set_no": 999,
        "meta_rev_at_epoch": 131,
        "meta_bstar": -0.0034055,
        "meta_mean_motion_dot": -0.01167664,
        "meta_mean_motion_ddot": 0.00040502,
        "tle_line1": "1 67013U 25293L   25354.16667823 -.01167664  40502-3 -34055-2 0  9992",
        "tle_line2": "2 67013  69.9938 302.2041 0003941 273.1177 198.2765 15.92649590  1313"
      },
      "geometry": {
        "type": "Point",
        "coordinates": [
          67.1854511929015,
          65.78411810330691
        ]
      }
    },
    {
      "type": "Feature",
      "properties": {
        "norad_id": 67014,
        "name": "STARLINK-36207",
        "group": "last-30-days",
        "lat": 64.36059698435862,
        "lon": 71.90579379777313,
        "alt_km": 292.36654071873545,
        "timestamp": "2025-12-20T11:30:27.108308+00:00",
        "meta_object_name": "STARLINK-36207",
        "meta_object_id": "2025-293M",
        "meta_epoch": "2025-12-20T04:00:00.999072",
        "meta_mean_motion": 15.92713897,
        "meta_eccentricity": 0.0003949,
        "meta_inclination": 69.9943,
        "meta_ra_of_asc_node": 302.2015,
        "meta_arg_of_pericenter": 275.0011,
        "meta_mean_anomaly": 198.7728,
        "meta_ephemeris_type": 0,
        "meta_classification_type": "U",
        "meta_norad_cat_id": 67014,
        "meta_element_set_no": 999,
        "meta_rev_at_epoch": 137,
        "meta_bstar": -0.0034779,
        "meta_mean_motion_dot": -0.01196229,
        "meta_mean_motion_ddot": 0.00042376,
        "tle_line1": "1 67014U 25293M   25354.16667823 -.01196229  42376-3 -34779-2 0  9996",
        "tle_line2": "2 67014  69.9943 302.2015 0003949 275.0011 198.7728 15.92713897  1379"
      },
      "geometry": {
        "type": "Point",
        "coordinates": [
          71.90579379777313,
          64.36059698435862
        ]
      }
    },
    {
      "type": "Feature",
      "properties": {
        "norad_id": 67015,
        "name": "STARLINK-36093",
        "group": "last-30-days",
        "lat": 61.175883270647304,
        "lon": 79.82611160066448,
        "alt_km": 292.33284916114553,
        "timestamp": "2025-12-20T11:30:27.108323+00:00",
        "meta_object_name": "STARLINK-36093",
        "meta_object_id": "2025-293N",
        "meta_epoch": "2025-12-20T04:00:00.999072",
        "meta_mean_motion": 15.92826106,
        "meta_eccentricity": 0.0003914,
        "meta_inclination": 69.994,
        "meta_ra_of_asc_node": 302.1957,
        "meta_arg_of_pericenter": 271.2065,
        "meta_mean_anomaly": 207.2746,
        "meta_ephemeris_type": 0,
        "meta_classification_type": "U",
        "meta_norad_cat_id": 67015,
        "meta_element_set_no": 999,
        "meta_rev_at_epoch": 131,
        "meta_bstar": -0.0035855,
        "meta_mean_motion_dot": -0.01240025,
        "meta_mean_motion_ddot": 0.00045334,
        "tle_line1": "1 67015U 25293N   25354.16667823 -.01240025  45334-3 -35855-2 0  9994",
        "tle_line2": "2 67015  69.9940 302.1957 0003914 271.2065 207.2746 15.92826106  1318"
      },
      "geometry": {
        "type": "Point",
        "coordinates": [
          79.82611160066448,
          61.175883270647304
        ]
      }
    },
    {
      "type": "Feature",
      "properties": {
        "norad_id": 67016,
        "name": "STARLINK-36120",
        "group": "last-30-days",
        "lat": 62.92506667442439,
        "lon": 75.82794364447852,
        "alt_km": 292.29650067724106,
        "timestamp": "2025-12-20T11:30:27.108335+00:00",
        "meta_object_name": "STARLINK-36120",
        "meta_object_id": "2025-293P",
        "meta_epoch": "2025-12-20T04:00:00.999072",
        "meta_mean_motion": 15.92761868,
        "meta_eccentricity": 0.0003891,
        "meta_inclination": 69.9941,
        "meta_ra_of_asc_node": 302.1987,
        "meta_arg_of_pericenter": 271.7014,
        "meta_mean_anomaly": 204.2791,
        "meta_ephemeris_type": 0,
        "meta_classification_type": "U",
        "meta_norad_cat_id": 67016,
        "meta_element_set_no": 999,
        "meta_rev_at_epoch": 131,
        "meta_bstar": -0.0034999,
        "meta_mean_motion_dot": -0.01206684,
        "meta_mean_motion_ddot": 0.00043083,
        "tle_line1": "1 67016U 25293P   25354.16667823 -.01206684  43083-3 -34999-2 0  9995",
        "tle_line2": "2 67016  69.9941 302.1987 0003891 271.7014 204.2791 15.92761868  1316"
      },
      "geometry": {
        "type": "Point",
        "coordinates": [
          75.82794364447852,
          62.92506667442439
        ]
      }
    }
  ]
}